{
  "norad_id": 31102,
  "name": "ANIK F3",
  "history": [
    {
      "epoch": "2026-04-13T05:00:10.454112Z",
      "apogee_km": 35797.93989126551,
      "perigee_km": 35774.83457527616,
      "latitude_deg": 0.9670183826471714,
      "longitude_deg": -118.68631584300384,
      "height_km": 35793.47158881698,
      "semi_major_axis_km": 42164.52423327084,
      "eccentricity": 0.00027399,
      "inclination_deg": 1.0282,
      "raan_deg": 84.5706,
      "arg_perigee_deg": 301.5896,
      "mean_anomaly_deg": 131.5811,
      "mean_motion_rev_day": 1.00272526
    },
    {
      "epoch": "2026-04-14T15:52:07.609152Z",
      "apogee_km": 35797.778425915116,
      "perigee_km": 35774.97585666751,
      "latitude_deg": -0.8481775053265792,
      "longitude_deg": -118.73799382938299,
      "height_km": 35781.200096063425,
      "semi_major_axis_km": 42164.514141291314,
      "eccentricity": 0.0002704,
      "inclination_deg": 1.032,
      "raan_deg": 84.5457,
      "arg_perigee_deg": 303.0021,
      "mean_anomaly_deg": 294.6181,
      "mean_motion_rev_day": 1.00272562
    },
    {
      "epoch": "2026-04-15T15:11:03.456096Z",
      "apogee_km": 35797.66601477251,
      "perigee_km": 35775.06584120311,
      "latitude_deg": -0.7472824269279087,
      "longitude_deg": -118.73855780686573,
      "height_km": 35783.105993232886,
      "semi_major_axis_km": 42164.502927987814,
      "eccentricity": 0.000268,
      "inclination_deg": 1.0347,
      "raan_deg": 84.5293,
      "arg_perigee_deg": 303.836,
      "mean_anomaly_deg": 284.4941,
      "mean_motion_rev_day": 1.00272602
    },
    {
      "epoch": "2026-04-16T16:51:08.902368Z",
      "apogee_km": 35797.528034939955,
      "perigee_km": 35775.17242381093,
      "latitude_deg": -0.9759682144911255,
      "longitude_deg": -118.72799560611426,
      "height_km": 35778.81601038372,
      "semi_major_axis_km": 42164.487229375445,
      "eccentricity": 0.0002651,
      "inclination_deg": 1.0377,
      "raan_deg": 84.5121,
      "arg_perigee_deg": 304.8905,
      "mean_anomaly_deg": 309.5374,
      "mean_motion_rev_day": 1.00272658
    },
    {
      "epoch": "2026-04-17T21:35:18.513312Z",
      "apogee_km": 35797.36857621437,
      "perigee_km": 35775.28030144503,
      "latitude_deg": -0.571196298162852,
      "longitude_deg": -118.68320081321052,
      "height_km": 35775.50758107563,
      "semi_major_axis_km": 42164.461438829705,
      "eccentricity": 0.00026193,
      "inclination_deg": 1.0411,
      "raan_deg": 84.497,
      "arg_perigee_deg": 305.9577,
      "mean_anomaly_deg": 20.7099,
      "mean_motion_rev_day": 1.0027275
    },
    {
      "epoch": "2026-04-18T20:15:21.625920Z",
      "apogee_km": 35797.98863905341,
      "perigee_km": 35775.953153666764,
      "latitude_deg": -0.815862983227778,
      "longitude_deg": -118.69863642183756,
      "height_km": 35775.84314851466,
      "semi_major_axis_km": 42165.10789636009,
      "eccentricity": 0.0002613,
      "inclination_deg": 1.0438,
      "raan_deg": 84.4782,
      "arg_perigee_deg": 293.2035,
      "mean_anomaly_deg": 14.4131,
      "mean_motion_rev_day": 1.00270444
    },
    {
      "epoch": "2026-04-19T14:44:19.389120Z",
      "apogee_km": 35797.941166609315,
      "perigee_km": 35775.97315255217,
      "latitude_deg": -0.7262945549205333,
      "longitude_deg": -118.74400001642005,
      "height_km": 35782.50660384086,
      "semi_major_axis_km": 42165.094159580745,
      "eccentricity": 0.0002605,
      "inclination_deg": 1.046,
      "raan_deg": 84.4695,
      "arg_perigee_deg": 293.9973,
      "mean_anomaly_deg": 291.6243,
      "mean_motion_rev_day": 1.00270493
    },
    {
      "epoch": "2026-04-20T14:47:00.258144Z",
      "apogee_km": 35797.86835267977,
      "perigee_km": 35775.93831520208,
      "latitude_deg": -0.7515826762618282,
      "longitude_deg": -118.74438075419171,
      "height_km": 35782.41529416815,
      "semi_major_axis_km": 42165.040333940924,
      "eccentricity": 0.00026005,
      "inclination_deg": 1.0489,
      "raan_deg": 84.4569,
      "arg_perigee_deg": 295.3983,
      "mean_anomaly_deg": 291.8899,
      "mean_motion_rev_day": 1.00270685
    },
    {
      "epoch": "2026-04-21T16:38:22.040160Z",
      "apogee_km": 35797.82226062283,
      "perigee_km": 35775.86273929925,
      "latitude_deg": -1.0027169786974042,
      "longitude_deg": -118.73351985411205,
      "height_km": 35778.16426416496,
      "semi_major_axis_km": 42164.979499961046,
      "eccentricity": 0.0002604,
      "inclination_deg": 1.052,
      "raan_deg": 84.4416,
      "arg_perigee_deg": 297.1978,
      "mean_anomaly_deg": 319.0048,
      "mean_motion_rev_day": 1.00270902
    },
    {
      "epoch": "2026-04-22T13:10:28.655328Z",
      "apogee_km": 35797.81060686001,
      "perigee_km": 35775.74992214722,
      "latitude_deg": -0.4350974755570934,
      "longitude_deg": -118.74375032058266,
      "height_km": 35787.11040166063,
      "semi_major_axis_km": 42164.917264503616,
      "eccentricity": 0.0002616,
      "inclination_deg": 1.0545,
      "raan_deg": 84.4334,
      "arg_perigee_deg": 299.034,
      "mean_anomaly_deg": 266.0459,
      "mean_motion_rev_day": 1.00271124
    },
    {
      "epoch": "2026-04-23T12:43:38.536032Z",
      "apogee_km": 35797.80741294061,
      "perigee_km": 35775.606779227135,
      "latitude_deg": -0.33936850729092954,
      "longitude_deg": -118.74129497083284,
      "height_km": 35788.55715175376,
      "semi_major_axis_km": 42164.84409608387,
      "eccentricity": 0.00026326,
      "inclination_deg": 1.0573,
      "raan_deg": 84.4229,
      "arg_perigee_deg": 301.275,
      "mean_anomaly_deg": 258.0725,
      "mean_motion_rev_day": 1.00271385
    },
    {
      "epoch": "2026-04-24T16:30:38.650176Z",
      "apogee_km": 35797.83433442192,
      "perigee_km": 35775.40268449088,
      "latitude_deg": -1.0176361275747636,
      "longitude_deg": -118.73238726547697,
      "height_km": 35778.55353357192,
      "semi_major_axis_km": 42164.7555094564,
      "eccentricity": 0.000266,
      "inclination_deg": 1.0606,
      "raan_deg": 84.4101,
      "arg_perigee_deg": 304.1271,
      "mean_anomaly_deg": 313.1241,
      "mean_motion_rev_day": 1.00271701
    },
    {
      "epoch": "2026-04-25T16:28:07.665312Z",
      "apogee_km": 35797.863775455226,
      "perigee_km": 35775.20448119087,
      "latitude_deg": -1.0207298678654022,
      "longitude_deg": -118.73290360654796,
      "height_km": 35778.74892727157,
      "semi_major_axis_km": 42164.671128323054,
      "eccentricity": 0.0002687,
      "inclination_deg": 1.0633,
      "raan_deg": 84.4024,
      "arg_perigee_deg": 306.9483,
      "mean_anomaly_deg": 310.666,
      "mean_motion_rev_day": 1.00272002
    },
    {
      "epoch": "2026-04-26T21:33:33.765408Z",
      "apogee_km": 35797.971129154124,
      "perigee_km": 35774.88855868109,
      "latitude_deg": -0.4481683606324863,
      "longitude_deg": -118.69044102084871,
      "height_km": 35775.47830682323,
      "semi_major_axis_km": 42164.56684391761,
      "eccentricity": 0.00027372,
      "inclination_deg": 1.0665,
      "raan_deg": 84.3936,
      "arg_perigee_deg": 310.1772,
      "mean_anomaly_deg": 25.0013,
      "mean_motion_rev_day": 1.00272374
    },
    {
      "epoch": "2026-04-27T14:40:16.815936Z",
      "apogee_km": 35797.981126905615,
      "perigee_km": 35774.74848641014,
      "latitude_deg": -0.8269410675045745,
      "longitude_deg": -118.74193265251232,
      "height_km": 35783.844885020764,
      "semi_major_axis_km": 42164.50180665788,
      "eccentricity": 0.0002755,
      "inclination_deg": 1.0683,
      "raan_deg": 84.3887,
      "arg_perigee_deg": 312.1325,
      "mean_anomaly_deg": 280.4354,
      "mean_motion_rev_day": 1.00272606
    },
    {
      "epoch": "2026-04-28T16:20:26.327328Z",
      "apogee_km": 35798.089007955765,
      "perigee_km": 35774.460071728834,
      "latitude_deg": -1.0273833596625095,
      "longitude_deg": -118.73350911315843,
      "height_km": 35779.30252973777,
      "semi_major_axis_km": 42164.4115398423,
      "eccentricity": 0.0002802,
      "inclination_deg": 1.071,
      "raan_deg": 84.3797,
      "arg_perigee_deg": 314.939,
      "mean_anomaly_deg": 303.7359,
      "mean_motion_rev_day": 1.00272928
    },
    {
      "epoch": "2026-04-29T14:35:12.552288Z",
      "apogee_km": 35798.18954653645,
      "perigee_km": 35774.20647278296,
      "latitude_deg": -0.837958411414374,
      "longitude_deg": -118.73960683616417,
      "height_km": 35784.52854021504,
      "semi_major_axis_km": 42164.335009659706,
      "eccentricity": 0.0002844,
      "inclination_deg": 1.0733,
      "raan_deg": 84.3713,
      "arg_perigee_deg": 317.2827,
      "mean_anomaly_deg": 276.0114,
      "mean_motion_rev_day": 1.00273201
    },
    {
      "epoch": "2026-04-30T12:49:54.825312Z",
      "apogee_km": 35798.30188052946,
      "perigee_km": 35773.94948897325,
      "latitude_deg": -0.4879377590064683,
      "longitude_deg": -118.73391674661185,
      "height_km": 35790.19276286852,
      "semi_major_axis_km": 42164.26268475136,
      "eccentricity": 0.00028878,
      "inclination_deg": 1.0755,
      "raan_deg": 84.3628,
      "arg_perigee_deg": 319.5808,
      "mean_anomaly_deg": 248.3169,
      "mean_motion_rev_day": 1.00273459
    },
    {
      "epoch": "2026-05-02T09:23:38.764032Z",
      "apogee_km": 35798.97277791574,
      "perigee_km": 35774.50028531799,
      "latitude_deg": 0.39187838916859935,
      "longitude_deg": -118.7137318505533,
      "height_km": 35797.29188904322,
      "semi_major_axis_km": 42164.87353161687,
      "eccentricity": 0.0002902,
      "inclination_deg": 1.0799,
      "raan_deg": 84.3416,
      "arg_perigee_deg": 312.7438,
      "mean_anomaly_deg": 205.4375,
      "mean_motion_rev_day": 1.0027128
    }
  ]
}